[{"OBJECT_NAME":"STARLINK-4656","OBJECT_ID":"2022-107AX","EPOCH":"2025-08-01T02:58:13.364256","MEAN_MOTION":15.08836026,"ECCENTRICITY":0.000125,"INCLINATION":53.2168,"RA_OF_ASC_NODE":174.4077,"ARG_OF_PERICENTER":93.3198,"MEAN_ANOMALY":266.7937,"EPHEMERIS_TYPE":0,"CLASSIFICATION_TYPE":"U","NORAD_CAT_ID":53745,"ELEMENT_SET_NO":999,"REV_AT_EPOCH":16129,"BSTAR":1.6558e-5,"MEAN_MOTION_DOT":-2.4e-7,"MEAN_MOTION_DDOT":0},{"OBJECT_NAME":"STARLINK-4589","OBJECT_ID":"2022-107AY","EPOCH":"2025-08-01T04:22:59.598336","MEAN_MOTION":15.08835128,"ECCENTRICITY":0.0001446,"INCLINATION":53.2179,"RA_OF_ASC_NODE":174.0688,"ARG_OF_PERICENTER":101.5447,"MEAN_ANOMALY":258.5707,"EPHEMERIS_TYPE":0,"CLASSIFICATION_TYPE":"U","NORAD_CAT_ID":53746,"ELEMENT_SET_NO":999,"REV_AT_EPOCH":16130,"BSTAR":9.0399e-6,"MEAN_MOTION_DOT":-1.44e-6,"MEAN_MOTION_DDOT":0},{"OBJECT_NAME":"STARLINK-4612","OBJECT_ID":"2022-107BC","EPOCH":"2025-08-01T03:08:50.134848","MEAN_MOTION":15.08834182,"ECCENTRICITY":0.0001351,"INCLINATION":53.2165,"RA_OF_ASC_NODE":174.4541,"ARG_OF_PERICENTER":83.4144,"MEAN_ANOMALY":276.7002,"EPHEMERIS_TYPE":0,"CLASSIFICATION_TYPE":"U","NORAD_CAT_ID":53750,"ELEMENT_SET_NO":999,"REV_AT_EPOCH":16130,"BSTAR":-3.7291e-6,"MEAN_MOTION_DOT":-3.47e-6,"MEAN_MOTION_DDOT":0},{"OBJECT_NAME":"STARLINK-4718","OBJECT_ID":"2022-111A","EPOCH":"2025-08-01T05:18:36.592704","MEAN_MOTION":15.08839459,"ECCENTRICITY":0.0001199,"INCLINATION":53.2161,"RA_OF_ASC_NODE":193.7632,"ARG_OF_PERICENTER":78.2384,"MEAN_ANOMALY":281.8742,"EPHEMERIS_TYPE":0,"CLASSIFICATION_TYPE":"U","NORAD_CAT_ID":53773,"ELEMENT_SET_NO":999,"REV_AT_EPOCH":16056,"BSTAR":1.2039e-8,"MEAN_MOTION_DOT":-2.88e-6,"MEAN_MOTION_DDOT":0},{"OBJECT_NAME":"STARLINK-4719","OBJECT_ID":"2022-111B","EPOCH":"2025-08-01T08:24:04.469472","MEAN_MOTION":15.08840693,"ECCENTRICITY":0.0001288,"INCLINATION":53.2157,"RA_OF_ASC_NODE":193.1449,"ARG_OF_PERICENTER":82.7109,"MEAN_ANOMALY":277.4029,"EPHEMERIS_TYPE":0,"CLASSIFICATION_TYPE":"U","NORAD_CAT_ID":53774,"ELEMENT_SET_NO":999,"REV_AT_EPOCH":16044,"BSTAR":2.1019e-5,"MEAN_MOTION_DOT":4.7e-7,"MEAN_MOTION_DDOT":0},{"OBJECT_NAME":"STARLINK-4722","OBJECT_ID":"2022-111C","EPOCH":"2025-08-01T07:32:28.114656","MEAN_MOTION":15.0884129,"ECCENTRICITY":0.0001174,"INCLINATION":53.2164,"RA_OF_ASC_NODE":183.6603,"ARG_OF_PERICENTER":76.8957,"MEAN_ANOMALY":283.2167,"EPHEMERIS_TYPE":0,"CLASSIFICATION_TYPE":"U","NORAD_CAT_ID":53775,"ELEMENT_SET_NO":999,"REV_AT_EPOCH":16042,"BSTAR":2.8898e-5,"MEAN_MOTION_DOT":1.72e-6,"MEAN_MOTION_DDOT":0},{"OBJECT_NAME":"STARLINK-4664","OBJECT_ID":"2022-111E","EPOCH":"2025-08-01T07:21:51.219648","MEAN_MOTION":15.08845476,"ECCENTRICITY":0.0001308,"INCLINATION":53.2169,"RA_OF_ASC_NODE":183.6144,"ARG_OF_PERICENTER":86.9059,"MEAN_ANOMALY":273.2083,"EPHEMERIS_TYPE":0,"CLASSIFICATION_TYPE":"U","NORAD_CAT_ID":53777,"ELEMENT_SET_NO":999,"REV_AT_EPOCH":16042,"BSTAR":6.4031e-5,"MEAN_MOTION_DOT":7.31e-6,"MEAN_MOTION_DDOT":0},{"OBJECT_NAME":"STARLINK-4709","OBJECT_ID":"2022-111F","EPOCH":"2025-08-01T12:47:00.883104","MEAN_MOTION":15.08845217,"ECCENTRICITY":0.000139,"INCLINATION":53.2162,"RA_OF_ASC_NODE":187.1699,"ARG_OF_PERICENTER":86.4237,"MEAN_ANOMALY":273.6914,"EPHEMERIS_TYPE":0,"CLASSIFICATION_TYPE":"U","NORAD_CAT_ID":53778,"ELEMENT_SET_NO":999,"REV_AT_EPOCH":16039,"BSTAR":2.946e-5,"MEAN_MOTION_DOT":1.81e-6,"MEAN_MOTION_DDOT":0},{"OBJECT_NAME":"STARLINK-4706","OBJECT_ID":"2022-111G","EPOCH":"2025-08-01T07:16:33.469824","MEAN_MOTION":15.0883493,"ECCENTRICITY":0.0001304,"INCLINATION":53.2168,"RA_OF_ASC_NODE":183.593,"ARG_OF_PERICENTER":85.2661,"MEAN_ANOMALY":274.848,"EPHEMERIS_TYPE":0,"CLASSIFICATION_TYPE":"U","NORAD_CAT_ID":53779,"ELEMENT_SET_NO":999,"REV_AT_EPOCH":16042,"BSTAR":3.873e-5,"MEAN_MOTION_DOT":3.28e-6,"MEAN_MOTION_DDOT":0},{"OBJECT_NAME":"STARLINK-4678","OBJECT_ID":"2022-111H","EPOCH":"2025-08-01T07:27:10.757088","MEAN_MOTION":15.08825215,"ECCENTRICITY":0.0001681,"INCLINATION":53.2166,"RA_OF_ASC_NODE":183.6372,"ARG_OF_PERICENTER":62.3735,"MEAN_ANOMALY":297.7427,"EPHEMERIS_TYPE":0,"CLASSIFICATION_TYPE":"U","NORAD_CAT_ID":53780,"ELEMENT_SET_NO":999,"REV_AT_EPOCH":16042,"BSTAR":0.00039905,"MEAN_MOTION_DOT":6.066e-5,"MEAN_MOTION_DDOT":0},{"OBJECT_NAME":"STARLINK-4462","OBJECT_ID":"2022-111J","EPOCH":"2025-08-01T05:25:15.396960","MEAN_MOTION":15.08831235,"ECCENTRICITY":0.0001257,"INCLINATION":53.2165,"RA_OF_ASC_NODE":183.8216,"ARG_OF_PERICENTER":83.1864,"MEAN_ANOMALY":276.9271,"EPHEMERIS_TYPE":0,"CLASSIFICATION_TYPE":"U","NORAD_CAT_ID":53781,"ELEMENT_SET_NO":999,"REV_AT_EPOCH":16041,"BSTAR":1.4361e-5,"MEAN_MOTION_DOT":-5.9e-7,"MEAN_MOTION_DDOT":0},{"OBJECT_NAME":"STARLINK-4679","OBJECT_ID":"2022-111K","EPOCH":"2025-08-01T11:57:24.444576","MEAN_MOTION":15.08838362,"ECCENTRICITY":0.0001292,"INCLINATION":53.217,"RA_OF_ASC_NODE":182.6779,"ARG_OF_PERICENTER":82.5445,"MEAN_ANOMALY":277.5694,"EPHEMERIS_TYPE":0,"CLASSIFICATION_TYPE":"U","NORAD_CAT_ID":53782,"ELEMENT_SET_NO":999,"REV_AT_EPOCH":16045,"BSTAR":5.74e-5,"MEAN_MOTION_DOT":6.26e-6,"MEAN_MOTION_DDOT":0},{"OBJECT_NAME":"STARLINK-4536","OBJECT_ID":"2022-111L","EPOCH":"2025-08-01T08:25:24.682368","MEAN_MOTION":15.0883404,"ECCENTRICITY":0.000121,"INCLINATION":53.2167,"RA_OF_ASC_NODE":183.1805,"ARG_OF_PERICENTER":73.984,"MEAN_ANOMALY":286.1285,"EPHEMERIS_TYPE":0,"CLASSIFICATION_TYPE":"U","NORAD_CAT_ID":53783,"ELEMENT_SET_NO":999,"REV_AT_EPOCH":16043,"BSTAR":1.3869e-5,"MEAN_MOTION_DOT":-6.7e-7,"MEAN_MOTION_DDOT":0},{"OBJECT_NAME":"STARLINK-4687","OBJECT_ID":"2022-111M","EPOCH":"2025-08-01T07:05:58.005600","MEAN_MOTION":15.0882301,"ECCENTRICITY":0.0001271,"INCLINATION":53.2165,"RA_OF_ASC_NODE":183.5459,"ARG_OF_PERICENTER":86.8536,"MEAN_ANOMALY":273.2602,"EPHEMERIS_TYPE":0,"CLASSIFICATION_TYPE":"U","NORAD_CAT_ID":53784,"ELEMENT_SET_NO":999,"REV_AT_EPOCH":16042,"BSTAR":-4.0677e-5,"MEAN_MOTION_DOT":-9.35e-6,"MEAN_MOTION_DDOT":0},{"OBJECT_NAME":"STARLINK-4631","OBJECT_ID":"2022-111P","EPOCH":"2025-08-01T14:00:01.999872","MEAN_MOTION":15.89263039,"ECCENTRICITY":0.000123,"INCLINATION":53.2144,"RA_OF_ASC_NODE":144.8583,"ARG_OF_PERICENTER":139.2717,"MEAN_ANOMALY":305.9912,"EPHEMERIS_TYPE":0,"CLASSIFICATION_TYPE":"U","NORAD_CAT_ID":53786,"ELEMENT_SET_NO":999,"REV_AT_EPOCH":590,"BSTAR":0.0019683,"MEAN_MOTION_DOT":0.0062371,"MEAN_MOTION_DDOT":0},{"OBJECT_NAME":"STARLINK-4743","OBJECT_ID":"2022-111Q","EPOCH":"2025-08-01T11:25:34.440384","MEAN_MOTION":15.08844454,"ECCENTRICITY":0.0001064,"INCLINATION":53.2168,"RA_OF_ASC_NODE":182.5375,"ARG_OF_PERICENTER":81.2132,"MEAN_ANOMALY":278.8981,"EPHEMERIS_TYPE":0,"CLASSIFICATION_TYPE":"U","NORAD_CAT_ID":53787,"ELEMENT_SET_NO":999,"REV_AT_EPOCH":15964,"BSTAR":4.9799e-5,"MEAN_MOTION_DOT":5.05e-6,"MEAN_MOTION_DDOT":0},{"OBJECT_NAME":"STARLINK-4666","OBJECT_ID":"2022-111S","EPOCH":"2025-08-01T01:37:20.170848","MEAN_MOTION":15.08835194,"ECCENTRICITY":0.0001255,"INCLINATION":53.2158,"RA_OF_ASC_NODE":184.2525,"ARG_OF_PERICENTER":84.3785,"MEAN_ANOMALY":275.735,"EPHEMERIS_TYPE":0,"CLASSIFICATION_TYPE":"U","NORAD_CAT_ID":53789,"ELEMENT_SET_NO":999,"REV_AT_EPOCH":16038,"BSTAR":-1.1072e-5,"MEAN_MOTION_DOT":-4.64e-6,"MEAN_MOTION_DDOT":0},{"OBJECT_NAME":"STARLINK-4734","OBJECT_ID":"2022-111T","EPOCH":"2025-08-01T05:09:19.852704","MEAN_MOTION":15.08835282,"ECCENTRICITY":0.0001227,"INCLINATION":53.2167,"RA_OF_ASC_NODE":183.7512,"ARG_OF_PERICENTER":82.298,"MEAN_ANOMALY":277.8151,"EPHEMERIS_TYPE":0,"CLASSIFICATION_TYPE":"U","NORAD_CAT_ID":53790,"ELEMENT_SET_NO":999,"REV_AT_EPOCH":16041,"BSTAR":2.6969e-5,"MEAN_MOTION_DOT":1.41e-6,"MEAN_MOTION_DDOT":0},{"OBJECT_NAME":"STARLINK-4739","OBJECT_ID":"2022-111V","EPOCH":"2025-08-01T04:38:59.055648","MEAN_MOTION":15.08845934,"ECCENTRICITY":0.0001149,"INCLINATION":53.2166,"RA_OF_ASC_NODE":184.3141,"ARG_OF_PERICENTER":103.9241,"MEAN_ANOMALY":256.1879,"EPHEMERIS_TYPE":0,"CLASSIFICATION_TYPE":"U","NORAD_CAT_ID":53792,"ELEMENT_SET_NO":999,"REV_AT_EPOCH":16039,"BSTAR":5.453e-5,"MEAN_MOTION_DOT":5.8e-6,"MEAN_MOTION_DDOT":0},{"OBJECT_NAME":"STARLINK-4728","OBJECT_ID":"2022-111W","EPOCH":"2025-08-01T04:58:42.918816","MEAN_MOTION":15.08837689,"ECCENTRICITY":0.0001171,"INCLINATION":53.2163,"RA_OF_ASC_NODE":183.7003,"ARG_OF_PERICENTER":68.3183,"MEAN_ANOMALY":291.7934,"EPHEMERIS_TYPE":0,"CLASSIFICATION_TYPE":"U","NORAD_CAT_ID":53793,"ELEMENT_SET_NO":999,"REV_AT_EPOCH":16040,"BSTAR":4.2427e-5,"MEAN_MOTION_DOT":3.87e-6,"MEAN_MOTION_DDOT":0},{"OBJECT_NAME":"STARLINK-4730","OBJECT_ID":"2022-111X","EPOCH":"2025-08-01T13:02:20.059872","MEAN_MOTION":15.08838918,"ECCENTRICITY":0.0001582,"INCLINATION":53.2159,"RA_OF_ASC_NODE":182.243,"ARG_OF_PERICENTER":78.3905,"MEAN_ANOMALY":281.7264,"EPHEMERIS_TYPE":0,"CLASSIFICATION_TYPE":"U","NORAD_CAT_ID":53794,"ELEMENT_SET_NO":999,"REV_AT_EPOCH":15965,"BSTAR":-5.8369e-5,"MEAN_MOTION_DOT":-1.217e-5,"MEAN_MOTION_DDOT":0},{"OBJECT_NAME":"STARLINK-4742","OBJECT_ID":"2022-111Y","EPOCH":"2025-08-01T17:25:53.161536","MEAN_MOTION":15.08837086,"ECCENTRICITY":0.0001299,"INCLINATION":53.2159,"RA_OF_ASC_NODE":181.2548,"ARG_OF_PERICENTER":83.9982,"MEAN_ANOMALY":276.1158,"EPHEMERIS_TYPE":0,"CLASSIFICATION_TYPE":"U","NORAD_CAT_ID":53795,"ELEMENT_SET_NO":999,"REV_AT_EPOCH":15968,"BSTAR":-7.7955e-7,"MEAN_MOTION_DOT":-3.0e-6,"MEAN_MOTION_DDOT":0},{"OBJECT_NAME":"STARLINK-4721","OBJECT_ID":"2022-111Z","EPOCH":"2025-08-01T14:00:01.999872","MEAN_MOTION":15.78583728,"ECCENTRICITY":0.0003722,"INCLINATION":53.1713,"RA_OF_ASC_NODE":86.419,"ARG_OF_PERICENTER":209.8392,"MEAN_ANOMALY":297.0008,"EPHEMERIS_TYPE":0,"CLASSIFICATION_TYPE":"U","NORAD_CAT_ID":53796,"ELEMENT_SET_NO":999,"REV_AT_EPOCH":598,"BSTAR":0.0017689,"MEAN_MOTION_DOT":0.00326162,"MEAN_MOTION_DDOT":0}]
